CTC1_L_00025001-01
1 60325U 23416ZY  26070.40831019  .00000000  00000+0  00000-0 0  9992
2 60325  95.0000   0.0000 0000000   0.0000   0.0000 15.80155680    12
CTC1_L_00025001-02
1 60326U 25902BW  26070.40831019  .00000000  00000+0  00000-0 0  9995
2 60326  95.0000   0.0000 0000000   0.0000  90.0000 15.80155680    12
CTC1_L_00025001-03
1 60327U 26776VD  26070.40831019  .00000000  00000+0  00000-0 0  9996
2 60327  95.0000   0.0000 0000000   0.0000 180.0000 15.80155680    13
CTC1_L_00025001-04
1 60328U 24186UD  26070.40831019  .00000000  00000+0  00000-0 0  9990
2 60328  95.0000   0.0000 0000000   0.0000 270.0000 15.80155680    14
CTC1_L_00025002-01
1 60329U 24433A   26070.40831019  .00000000  00000+0  00000-0 0  9996
2 60329  95.0000  12.0000 0000000   0.0000  12.0000 15.80155680    12
CTC1_L_00025002-02
1 60330U 23315TS  26070.40831019  .00000000  00000+0  00000-0 0  9996
2 60330  95.0000  12.0000 0000000   0.0000 102.0000 15.80155680    14
CTC1_L_00025002-03
1 60331U 24655HZ  26070.40831019  .00000000  00000+0  00000-0 0  9995
2 60331  95.0000  12.0000 0000000   0.0000 192.0000 15.80155680    14
CTC1_L_00025002-04
1 60332U 26935IZ  26070.40831019  .00000000  00000+0  00000-0 0  9999
2 60332  95.0000  12.0000 0000000   0.0000 282.0000 15.80155680    15
CTC1_L_00025003-01
1 60333U 23576TI  26070.40831019  .00000000  00000+0  00000-0 0  9998
2 60333  95.0000  24.0000 0000000   0.0000  24.0000 15.80155680    13
CTC1_L_00025003-02
1 60334U 23911SU  26070.40831019  .00000000  00000+0  00000-0 0  9992
2 60334  95.0000  24.0000 0000000   0.0000 114.0000 15.80155680    14
CTC1_L_00025003-03
1 60335U 26101PF  26070.40831019  .00000000  00000+0  00000-0 0  9997
2 60335  95.0000  24.0000 0000000   0.0000 204.0000 15.80155680    15
CTC1_L_00025003-04
1 60336U 26485BF  26070.40831019  .00000000  00000+0  00000-0 0  9993
2 60336  95.0000  24.0000 0000000   0.0000 294.0000 15.80155680    15
CTC1_L_00025004-01
1 60337U 22647ZX  26070.40831019  .00000000  00000+0  00000-0 0  9990
2 60337  95.0000  36.0000 0000000   0.0000  36.0000 15.80155680    13
CTC1_L_00025004-02
1 60338U 22673NR  26070.40831019  .00000000  00000+0  00000-0 0  9990
2 60338  95.0000  36.0000 0000000   0.0000 126.0000 15.80155680    14
CTC1_L_00025004-03
1 60339U 22276TR  26070.40831019  .00000000  00000+0  00000-0 0  9990
2 60339  95.0000  36.0000 0000000   0.0000 216.0000 15.80155680    15
CTC1_L_00025004-04
1 60340U 25824HX  26070.40831019  .00000000  00000+0  00000-0 0  9994
2 60340  95.0000  36.0000 0000000   0.0000 306.0000 15.80155680    17
CTC1_L_00025005-01
1 60341U 22235ZY  26070.40831019  .00000000  00000+0  00000-0 0  9998
2 60341  95.0000  48.0000 0000000   0.0000  48.0000 15.80155680    14
CTC1_L_00025005-02
1 60342U 25640PW  26070.40831019  .00000000  00000+0  00000-0 0  9992
2 60342  95.0000  48.0000 0000000   0.0000 138.0000 15.80155680    15
CTC1_L_00025005-03
1 60343U 22345RL  26070.40831019  .00000000  00000+0  00000-0 0  9992
2 60343  95.0000  48.0000 0000000   0.0000 228.0000 15.80155680    16
CTC1_L_00025005-04
1 60344U 25814AL  26070.40831019  .00000000  00000+0  00000-0 0  9997
2 60344  95.0000  48.0000 0000000   0.0000 318.0000 15.80155680    17
CTC1_L_00025006-01
1 60345U 26895CS  26070.40831019  .00000000  00000+0  00000-0 0  9998
2 60345  95.0000  60.0000 0000000   0.0000  60.0000 15.80155680    16
CTC1_L_00025006-02
1 60346U 22983TF  26070.40831019  .00000000  00000+0  00000-0 0  9993
2 60346  95.0000  60.0000 0000000   0.0000 150.0000 15.80155680    17
CTC1_L_00025006-03
1 60347U 25980XR  26070.40831019  .00000000  00000+0  00000-0 0  9994
2 60347  95.0000  60.0000 0000000   0.0000 240.0000 15.80155680    18
CTC1_L_00025006-04
1 60348U 22212OZ  26070.40831019  .00000000  00000+0  00000-0 0  9990
2 60348  95.0000  60.0000 0000000   0.0000 330.0000 15.80155680    19
CTC1_L_00025007-01
1 60349U 23851D   26070.40831019  .00000000  00000+0  00000-0 0  9991
2 60349  95.0000  72.0000 0000000   0.0000  72.0000 15.80155680    16
CTC1_L_00025007-02
1 60350U 25822OO  26070.40831019  .00000000  00000+0  00000-0 0  9993
2 60350  95.0000  72.0000 0000000   0.0000 162.0000 15.80155680    18
CTC1_L_00025007-03
1 60351U 22814VU  26070.40831019  .00000000  00000+0  00000-0 0  9992
2 60351  95.0000  72.0000 0000000   0.0000 252.0000 15.80155680    19
CTC1_L_00025007-04
1 60352U 26197WY  26070.40831019  .00000000  00000+0  00000-0 0  9991
2 60352  95.0000  72.0000 0000000   0.0000 342.0000 15.80155680    10
CTC1_L_00025008-01
1 60353U 23164TN  26070.40831019  .00000000  00000+0  00000-0 0  9993
2 60353  95.0000  84.0000 0000000   0.0000  84.0000 15.80155680    17
CTC1_L_00025008-02
1 60354U 23909JN  26070.40831019  .00000000  00000+0  00000-0 0  9991
2 60354  95.0000  84.0000 0000000   0.0000 174.0000 15.80155680    18
CTC1_L_00025008-03
1 60355U 25100OV  26070.40831019  .00000000  00000+0  00000-0 0  9997
2 60355  95.0000  84.0000 0000000   0.0000 264.0000 15.80155680    19
CTC1_L_00025008-04
1 60356U 23108QS  26070.40831019  .00000000  00000+0  00000-0 0  9994
2 60356  95.0000  84.0000 0000000   0.0000 354.0000 15.80155680    10
CTC1_L_00025009-01
1 60357U 26385ZG  26070.40831019  .00000000  00000+0  00000-0 0  9995
2 60357  95.0000  96.0000 0000000   0.0000  96.0000 15.80155680    17
CTC1_L_00025009-02
1 60358U 25515NS  26070.40831019  .00000000  00000+0  00000-0 0  9990
2 60358  95.0000  96.0000 0000000   0.0000 186.0000 15.80155680    18
CTC1_L_00025009-03
1 60359U 24010MI  26070.40831019  .00000000  00000+0  00000-0 0  9990
2 60359  95.0000  96.0000 0000000   0.0000 276.0000 15.80155680    19
CTC1_L_00025009-04
1 60360U 25911VF  26070.40831019  .00000000  00000+0  00000-0 0  9993
2 60360  95.0000  96.0000 0000000   0.0000   6.0000 15.80155680    12
CTC1_L_00025010-01
1 60361U 26625C   26070.40831019  .00000000  00000+0  00000-0 0  9997
2 60361  95.0000 108.0000 0000000   0.0000 108.0000 15.80155680    10
CTC1_L_00025010-02
1 60362U 23153JJ  26070.40831019  .00000000  00000+0  00000-0 0  9991
2 60362  95.0000 108.0000 0000000   0.0000 198.0000 15.80155680    10
CTC1_L_00025010-03
1 60363U 26506OE  26070.40831019  .00000000  00000+0  00000-0 0  9997
2 60363  95.0000 108.0000 0000000   0.0000 288.0000 15.80155680    11
CTC1_L_00025010-04
1 60364U 24598AD  26070.40831019  .00000000  00000+0  00000-0 0  9997
2 60364  95.0000 108.0000 0000000   0.0000  18.0000 15.80155680    13
CTC1_L_00025011-01
1 60365U 22394DU  26070.40831019  .00000000  00000+0  00000-0 0  9990
2 60365  95.0000 120.0000 0000000   0.0000 120.0000 15.80155680    12
CTC1_L_00025011-02
1 60366U 23002IR  26070.40831019  .00000000  00000+0  00000-0 0  9998
2 60366  95.0000 120.0000 0000000   0.0000 210.0000 15.80155680    13
CTC1_L_00025011-03
1 60367U 25060BQ  26070.40831019  .00000000  00000+0  00000-0 0  9995
2 60367  95.0000 120.0000 0000000   0.0000 300.0000 15.80155680    14
CTC1_L_00025011-04
1 60368U 24657AU  26070.40831019  .00000000  00000+0  00000-0 0  9997
2 60368  95.0000 120.0000 0000000   0.0000  30.0000 15.80155680    15
CTC1_L_00025012-01
1 60369U 26119VA  26070.40831019  .00000000  00000+0  00000-0 0  9993
2 60369  95.0000 132.0000 0000000   0.0000 132.0000 15.80155680    12
CTC1_L_00025012-02
1 60370U 23993ZV  26070.40831019  .00000000  00000+0  00000-0 0  9992
2 60370  95.0000 132.0000 0000000   0.0000 222.0000 15.80155680    14
CTC1_L_00025012-03
1 60371U 24744SG  26070.40831019  .00000000  00000+0  00000-0 0  9998
2 60371  95.0000 132.0000 0000000   0.0000 312.0000 15.80155680    15
CTC1_L_00025012-04
1 60372U 23744HU  26070.40831019  .00000000  00000+0  00000-0 0  9998
2 60372  95.0000 132.0000 0000000   0.0000  42.0000 15.80155680    16
CTC1_L_00025013-01
1 60373U 25229VB  26070.40831019  .00000000  00000+0  00000-0 0  9999
2 60373  95.0000 144.0000 0000000   0.0000 144.0000 15.80155680    13
CTC1_L_00025013-02
1 60374U 22094HC  26070.40831019  .00000000  00000+0  00000-0 0  9997
2 60374  95.0000 144.0000 0000000   0.0000 234.0000 15.80155680    14
CTC1_L_00025013-03
1 60375U 24111HI  26070.40831019  .00000000  00000+0  00000-0 0  9990
2 60375  95.0000 144.0000 0000000   0.0000 324.0000 15.80155680    15
CTC1_L_00025013-04
1 60376U 26269AH  26070.40831019  .00000000  00000+0  00000-0 0  9997
2 60376  95.0000 144.0000 0000000   0.0000  54.0000 15.80155680    16
CTC1_L_00025014-01
1 60377U 24914XV  26070.40831019  .00000000  00000+0  00000-0 0  9993
2 60377  95.0000 156.0000 0000000   0.0000 156.0000 15.80155680    13
CTC1_L_00025014-02
1 60378U 23359XC  26070.40831019  .00000000  00000+0  00000-0 0  9996
2 60378  95.0000 156.0000 0000000   0.0000 246.0000 15.80155680    14
CTC1_L_00025014-03
1 60379U 22679FA  26070.40831019  .00000000  00000+0  00000-0 0  9991
2 60379  95.0000 156.0000 0000000   0.0000 336.0000 15.80155680    15
CTC1_L_00025014-04
1 60380U 23399LI  26070.40831019  .00000000  00000+0  00000-0 0  9993
2 60380  95.0000 156.0000 0000000   0.0000  66.0000 15.80155680    17
CTC1_L_00025015-01
1 60381U 23325NK  26070.40831019  .00000000  00000+0  00000-0 0  9993
2 60381  95.0000 168.0000 0000000   0.0000 168.0000 15.80155680    14
CTC1_L_00025015-02
1 60382U 22930GL  26070.40831019  .00000000  00000+0  00000-0 0  9995
2 60382  95.0000 168.0000 0000000   0.0000 258.0000 15.80155680    15
CTC1_L_00025015-03
1 60383U 26306DK  26070.40831019  .00000000  00000+0  00000-0 0  9997
2 60383  95.0000 168.0000 0000000   0.0000 348.0000 15.80155680    16
CTC1_L_00025015-04
1 60384U 22293GB  26070.40831019  .00000000  00000+0  00000-0 0  9999
2 60384  95.0000 168.0000 0000000   0.0000  78.0000 15.80155680    17
CTC1_L_00025016-01
1 60385U 25514QX  26070.40831019  .00000000  00000+0  00000-0 0  9999
2 60385  95.0000 180.0000 0000000   0.0000 180.0000 15.80155680    16
CTC1_L_00025016-02
1 60386U 24241BR  26070.40831019  .00000000  00000+0  00000-0 0  9996
2 60386  95.0000 180.0000 0000000   0.0000 270.0000 15.80155680    17
